STARLINK-1714
1 26562C 20070AG  21325.18073103 -.00000365  00000-0 -24439-4 0  3253
2 26562  53.0552   2.4243 0001678  53.5772 233.3248 15.06404202    11
